GLOBALSTAR M094 [+]     
1 39074U 13005C   24035.00051021 -.00000079  00000+0  13565-3 0  9994
2 39074  51.9942 261.9949 0000675  74.8636 285.2305 12.62262577509354
GLOBALSTAR M078 [+]     
1 39076U 13005E   24035.14605384 -.00000105  00000+0 -42810-5 0  9996
2 39076  51.9888  34.8639 0001227 141.5207 218.5747 12.62259582507100
GLOBALSTAR M095 [+]     
1 39077U 13005F   24035.17202408 -.00000103  00000+0  23319-5 0  9990
2 39077  51.9817  32.2268 0000668 168.6078 191.4804 12.62262933507115
